LANDSAT 9               
1 49260U 21088A   24147.60856119  .00000741  00000+0  17443-3 0  9997
2 49260  98.1877 217.5922 0001013  89.7432 270.3882 14.57129323141552
